{
  "type": "FeatureCollection",
  "features": [
    {
      "type": "Feature",
      "properties": {
        "norad_id": 57400,
        "name": "TIANMU-1 08",
        "group": "weather",
        "lat": -31.386131246150672,
        "lon": 31.78754960797982,
        "alt_km": 492.39829723243747,
        "timestamp": "2025-12-03T10:52:57.090484+00:00",
        "meta_object_name": "TIANMU-1 08",
        "meta_object_id": "2023-101B",
        "meta_epoch": "2025-12-03T04:44:00.735936",
        "meta_mean_motion": 15.27835239,
        "meta_eccentricity": 0.0007461,
        "meta_inclination": 97.2885,
        "meta_ra_of_asc_node": 27.0587,
        "meta_arg_of_pericenter": 110.6778,
        "meta_mean_anomaly": 249.5262,
        "meta_ephemeris_type": 0,
        "meta_classification_type": "U",
        "meta_norad_cat_id": 57400,
        "meta_element_set_no": 999,
        "meta_rev_at_epoch": 13169,
        "meta_bstar": 0.00036202,
        "meta_mean_motion_dot": 9.778e-05,
        "meta_mean_motion_ddot": 0,
        "tle_line1": "1 57400U 23101B   25337.19723074  .00009778  00000+0  36202-3 0  9992",
        "tle_line2": "2 57400  97.2885  27.0587 0007461 110.6778 249.5262 15.27835239131699"
      },
      "geometry": {
        "type": "Point",
        "coordinates": [
          31.78754960797982,
          -31.386131246150672
        ]
      }
    },
    {
      "type": "Feature",
      "properties": {
        "norad_id": 57401,
        "name": "TIANMU-1 09",
        "group": "weather",
        "lat": 39.718972361379656,
        "lon": 20.727572160427375,
        "alt_km": 477.5353479866826,
        "timestamp": "2025-12-03T10:52:57.090495+00:00",
        "meta_object_name": "TIANMU-1 09",
        "meta_object_id": "2023-101C",
        "meta_epoch": "2025-12-03T04:25:12.746784",
        "meta_mean_motion": 15.27856746,
        "meta_eccentricity": 0.0006742,
        "meta_inclination": 97.2841,
        "meta_ra_of_asc_node": 26.5645,
        "meta_arg_of_pericenter": 109.8324,
        "meta_mean_anomaly": 250.3643,
        "meta_ephemeris_type": 0,
        "meta_classification_type": "U",
        "meta_norad_cat_id": 57401,
        "meta_element_set_no": 999,
        "meta_rev_at_epoch": 13169,
        "meta_bstar": 0.00037115,
        "meta_mean_motion_dot": 0.00010032,
        "meta_mean_motion_ddot": 0,
        "tle_line1": "1 57401U 23101C   25337.18417531  .00010032  00000+0  37115-3 0  9999",
        "tle_line2": "2 57401  97.2841  26.5645 0006742 109.8324 250.3643 15.27856746131698"
      },
      "geometry": {
        "type": "Point",
        "coordinates": [
          20.727572160427375,
          39.718972361379656
        ]
      }
    },
    {
      "type": "Feature",
      "properties": {
        "norad_id": 57402,
        "name": "TIANMU-1 10",
        "group": "weather",
        "lat": -32.403564716050305,
        "lon": -156.99440459785933,
        "alt_km": 489.67528361357836,
        "timestamp": "2025-12-03T10:52:57.090505+00:00",
        "meta_object_name": "TIANMU-1 10",
        "meta_object_id": "2023-101D",
        "meta_epoch": "2025-12-03T03:40:05.729376",
        "meta_mean_motion": 15.27846873,
        "meta_eccentricity": 0.000848,
        "meta_inclination": 97.2922,
        "meta_ra_of_asc_node": 27.3735,
        "meta_arg_of_pericenter": 111.2032,
        "meta_mean_anomaly": 249.0114,
        "meta_ephemeris_type": 0,
        "meta_classification_type": "U",
        "meta_norad_cat_id": 57402,
        "meta_element_set_no": 999,
        "meta_rev_at_epoch": 13168,
        "meta_bstar": 0.00038387,
        "meta_mean_motion_dot": 0.00010379,
        "meta_mean_motion_ddot": 0,
        "tle_line1": "1 57402U 23101D   25337.15284409  .00010379  00000+0  38387-3 0  9999",
        "tle_line2": "2 57402  97.2922  27.3735 0008480 111.2032 249.0114 15.27846873131689"
      },
      "geometry": {
        "type": "Point",
        "coordinates": [
          -156.99440459785933,
          -32.403564716050305
        ]
      }
    },
    {
      "type": "Feature",
      "properties": {
        "norad_id": 57490,
        "name": "FENGYUN 3F",
        "group": "weather",
        "lat": 59.7165036282185,
        "lon": -118.88557424881647,
        "alt_km": 819.4906349897856,
        "timestamp": "2025-12-03T10:52:57.090518+00:00",
        "meta_object_name": "FENGYUN 3F",
        "meta_object_id": "2023-111A",
        "meta_epoch": "2025-12-03T03:33:31.989888",
        "meta_mean_motion": 14.19889358,
        "meta_eccentricity": 6.95e-05,
        "meta_inclination": 98.7095,
        "meta_ra_of_asc_node": 45.596,
        "meta_arg_of_pericenter": 85.7511,
        "meta_mean_anomaly": 274.3745,
        "meta_ephemeris_type": 0,
        "meta_classification_type": "U",
        "meta_norad_cat_id": 57490,
        "meta_element_set_no": 999,
        "meta_rev_at_epoch": 12104,
        "meta_bstar": 8.5645e-05,
        "meta_mean_motion_dot": 1.38e-06,
        "meta_mean_motion_ddot": 0,
        "tle_line1": "1 57490U 23111A   25337.14828692  .00000138  00000+0  85645-4 0  9996",
        "tle_line2": "2 57490  98.7095  45.5960 0000695  85.7511 274.3745 14.19889358121047"
      },
      "geometry": {
        "type": "Point",
        "coordinates": [
          -118.88557424881647,
          59.7165036282185
        ]
      }
    },
    {
      "type": "Feature",
      "properties": {
        "norad_id": 58584,
        "name": "ARKTIKA-M 2",
        "group": "weather",
        "lat": 51.3911301323931,
        "lon": -144.85826539954357,
        "alt_km": 29770.532756629782,
        "timestamp": "2025-12-03T10:52:57.090530+00:00",
        "meta_object_name": "ARKTIKA-M 2",
        "meta_object_id": "2023-198A",
        "meta_epoch": "2025-12-01T08:43:04.634112",
        "meta_mean_motion": 2.00605427,
        "meta_eccentricity": 0.68640288,
        "meta_inclination": 63.2218,
        "meta_ra_of_asc_node": 176.1298,
        "meta_arg_of_pericenter": 268.1507,
        "meta_mean_anomaly": 18.8441,
        "meta_ephemeris_type": 0,
        "meta_classification_type": "U",
        "meta_norad_cat_id": 58584,
        "meta_element_set_no": 999,
        "meta_rev_at_epoch": 1435,
        "meta_bstar": 0,
        "meta_mean_motion_dot": 2.37e-06,
        "meta_mean_motion_ddot": 0,
        "tle_line1": "1 58584U 23198A   25335.36324808  .00000237  00000+0  00000+0 0  9995",
        "tle_line2": "2 58584  63.2218 176.1298 6864028 268.1507  18.8441  2.00605427 14356"
      },
      "geometry": {
        "type": "Point",
        "coordinates": [
          -144.85826539954357,
          51.3911301323931
        ]
      }
    },
    {
      "type": "Feature",
      "properties": {
        "norad_id": 58645,
        "name": "TIANMU-1 11",
        "group": "weather",
        "lat": 32.60966649307504,
        "lon": -178.0141515760682,
        "alt_km": 496.4093862166401,
        "timestamp": "2025-12-03T10:52:57.090543+00:00",
        "meta_object_name": "TIANMU-1 11",
        "meta_object_id": "2023-205A",
        "meta_epoch": "2025-12-03T03:56:18.074112",
        "meta_mean_motion": 15.24412561,
        "meta_eccentricity": 0.0008875,
        "meta_inclination": 97.3613,
        "meta_ra_of_asc_node": 356.9573,
        "meta_arg_of_pericenter": 347.8436,
        "meta_mean_anomaly": 12.2586,
        "meta_ephemeris_type": 0,
        "meta_classification_type": "U",
        "meta_norad_cat_id": 58645,
        "meta_element_set_no": 999,
        "meta_rev_at_epoch": 10763,
        "meta_bstar": 0.00033723,
        "meta_mean_motion_dot": 8.209e-05,
        "meta_mean_motion_ddot": 0,
        "tle_line1": "1 58645U 23205A   25337.16409808  .00008209  00000+0  33723-3 0  9995",
        "tle_line2": "2 58645  97.3613 356.9573 0008875 347.8436  12.2586 15.24412561107632"
      },
      "geometry": {
        "type": "Point",
        "coordinates": [
          -178.0141515760682,
          32.60966649307504
        ]
      }
    },
    {
      "type": "Feature",
      "properties": {
        "norad_id": 58646,
        "name": "TIANMU-1 12",
        "group": "weather",
        "lat": 2.485210548818457,
        "lon": -3.271426567461478,
        "alt_km": 491.5949500164843,
        "timestamp": "2025-12-03T10:52:57.090554+00:00",
        "meta_object_name": "TIANMU-1 12",
        "meta_object_id": "2023-205B",
        "meta_epoch": "2025-12-03T04:34:10.839072",
        "meta_mean_motion": 15.24326061,
        "meta_eccentricity": 0.0006664,
        "meta_inclination": 97.36,
        "meta_ra_of_asc_node": 356.7917,
        "meta_arg_of_pericenter": 333.5855,
        "meta_mean_anomaly": 26.5042,
        "meta_ephemeris_type": 0,
        "meta_classification_type": "U",
        "meta_norad_cat_id": 58646,
        "meta_element_set_no": 999,
        "meta_rev_at_epoch": 10762,
        "meta_bstar": 0.00035716,
        "meta_mean_motion_dot": 8.672e-05,
        "meta_mean_motion_ddot": 0,
        "tle_line1": "1 58646U 23205B   25337.19040323  .00008672  00000+0  35716-3 0  9990",
        "tle_line2": "2 58646  97.3600 356.7917 0006664 333.5855  26.5042 15.24326061107623"
      },
      "geometry": {
        "type": "Point",
        "coordinates": [
          -3.271426567461478,
          2.485210548818457
        ]
      }
    }
  ]
}